IRIDIUM 7 [-]           
1 24793U 97020B   24096.43982131  .00000389  00000+0  12928-3 0  9999
2 24793  86.4018   0.2933 0002390  90.6448 269.5022 14.35143996409314
IRIDIUM 5 [-]           
1 24795U 97020D   24095.81588066  .00003312  00000+0  32224-3 0  9991
2 24795  86.3874 284.5032 0121815 262.8309  95.9053 14.86725917420161
IRIDIUM 4 [-]           
1 24796U 97020E   24095.79664203  .00000443  00000+0  14557-3 0  9998
2 24796  86.4013 357.7337 0002137  90.2064 269.9377 14.36063962409535
IRIDIUM 914 [-]         
1 24836U 97030A   24096.50997622  .00000484  00000+0  14773-3 0  9993
2 24836  86.3995   7.3141 0001481 141.1102 219.0204 14.39908939406222
IRIDIUM 16 [-]          
1 24841U 97030F   24095.89225130  .00000606  00000+0  19486-3 0  9990
2 24841  86.4085  29.3500 0004385  77.9844 282.1845 14.37798909404005
IRIDIUM 911 [-]         
1 24842U 97030G   24096.53276779  .00000695  00000+0  18775-3 0  9996
2 24842  86.4506  28.2687 0016369 112.4984 247.7953 14.46403207411776
IRIDIUM 17 [-]          
1 24870U 97034B   24096.44183436  .00000607  00000+0  19872-3 0  9990
2 24870  86.3950  58.7331 0003018  54.9217 305.2263 14.36882506400706
IRIDIUM 920 [-]         
1 24871U 97034C   24095.87416890  .00000594  00000+0  17984-3 0  9997
2 24871  86.4004  39.2191 0013848  87.5435 272.7349 14.40607617403453
